{
    "links": {
        "self": "http://www.neowsapp.com/rest/v1/neo/3991656?api_key=iIulBulltgU6a56xZRHN4H3l9WmuAYTsLGpBGhQ2"
    },
    "id": "3991656",
    "neo_reference_id": "3991656",
    "name": "(2020 DC1)",
    "designation": "2020 DC1",
    "nasa_jpl_url": "http://ssd.jpl.nasa.gov/sbdb.cgi?sstr=3991656",
    "absolute_magnitude_h": 25.292,
    "estimated_diameter": {
        "kilometers": {
            "estimated_diameter_min": 0.0232356581,
            "estimated_diameter_max": 0.0519565109
        },
        "meters": {
            "estimated_diameter_min": 23.2356580551,
            "estimated_diameter_max": 51.9565109132
        },
        "miles": {
            "estimated_diameter_min": 0.0144379641,
            "estimated_diameter_max": 0.0322842691
        },
        "feet": {
            "estimated_diameter_min": 76.2324763736,
            "estimated_diameter_max": 170.4609992645
        }
    },
    "is_potentially_hazardous_asteroid": false,
    "close_approach_data": [
        {
            "close_approach_date": "2019-01-18",
            "close_approach_date_full": "2019-Jan-18 18:51",
            "epoch_date_close_approach": 1547837460000,
            "relative_velocity": {
                "kilometers_per_second": "29.7917116809",
                "kilometers_per_hour": "107250.1620512623",
                "miles_per_hour": "66641.0798590191"
            },
            "miss_distance": {
                "astronomical": "0.1061690001",
                "lunar": "41.2997410389",
                "kilometers": "15882656.274989787",
                "miles": "9869024.9765095806"
            },
            "orbiting_body": "Venus"
        },
        {
            "close_approach_date": "2020-02-22",
            "close_approach_date_full": "2020-Feb-22 18:05",
            "epoch_date_close_approach": 1582394700000,
            "relative_velocity": {
                "kilometers_per_second": "26.929581323",
                "kilometers_per_hour": "96946.4927629537",
                "miles_per_hour": "60238.7804615142"
            },
            "miss_distance": {
                "astronomical": "0.0356948206",
                "lunar": "13.8852852134",
                "kilometers": "5339869.131792122",
                "miles": "3318040.8188984036"
            },
            "orbiting_body": "Earth"
        },
        {
            "close_approach_date": "2020-04-22",
            "close_approach_date_full": "2020-Apr-22 08:26",
            "epoch_date_close_approach": 1587543960000,
            "relative_velocity": {
                "kilometers_per_second": "48.4973352894",
                "kilometers_per_hour": "174590.4070419599",
                "miles_per_hour": "108483.6893089333"
            },
            "miss_distance": {
                "astronomical": "0.0301795674",
                "lunar": "11.7398517186",
                "kilometers": "4514799.000561438",
                "miles": "2805366.0123983244"
            },
            "orbiting_body": "Merc"
        }
    ],
    "orbital_data": {
        "orbit_id": "2",
        "orbit_determination_date": "2020-03-18 06:18:38",
        "first_observation_date": "2020-02-17",
        "last_observation_date": "2020-02-20",
        "data_arc_in_days": 3,
        "observations_used": 17,
        "orbit_uncertainty": "9",
        "minimum_orbit_intersection": ".0254844",
        "jupiter_tisserand_invariant": "5.313",
        "epoch_osculation": "2458897.5",
        "eccentricity": ".7067975335043963",
        "semi_major_axis": "1.092243191330009",
        "inclination": "32.04799529360859",
        "ascending_node_longitude": "150.3959410279537",
        "orbital_period": "416.9437288375526",
        "perihelion_distance": ".3202483977109882",
        "perihelion_argument": "132.3991644317152",
        "aphelion_distance": "1.86423798494903",
        "perihelion_time": "2458952.803894291257",
        "mean_anomaly": "312.2491871976098",
        "mean_motion": ".8634258656526318",
        "equinox": "J2000",
        "orbit_class": {
            "orbit_class_type": "APO",
            "orbit_class_description": "Near-Earth asteroid orbits which cross the Earth’s orbit similar to that of 1862 Apollo",
            "orbit_class_range": "a (semi-major axis) > 1.0 AU; q (perihelion) < 1.017 AU"
        }
    },
    "is_sentry_object": false
}